[
    {
        "CCSDS_OMM_VERS": "3.0",
        "COMMENT": "GENERATED VIA SPACE-TRACK.ORG API",
        "CREATION_DATE": "2025-05-03T17:28:03",
        "ORIGINATOR": "18 SPCS",
        "OBJECT_NAME": "GALILEO 6 (262)",
        "OBJECT_ID": "2014-050B",
        "CENTER_NAME": "EARTH",
        "REF_FRAME": "TEME",
        "TIME_SYSTEM": "UTC",
        "MEAN_ELEMENT_THEORY": "SGP4",
        "EPOCH": "2025-05-02T23:10:40.485504",
        "MEAN_MOTION": "1.85520322",
        "ECCENTRICITY": "0.16279120",
        "INCLINATION": "49.3389",
        "RA_OF_ASC_NODE": "289.2373",
        "ARG_OF_PERICENTER": "164.3357",
        "MEAN_ANOMALY": "201.3713",
        "EPHEMERIS_TYPE": "0",
        "CLASSIFICATION_TYPE": "U",
        "NORAD_CAT_ID": "40129",
        "ELEMENT_SET_NO": "999",
        "REV_AT_EPOCH": "7287",
        "BSTAR": "0.00000000000000",
        "MEAN_MOTION_DOT": "-0.00000055",
        "MEAN_MOTION_DDOT": "0.0000000000000",
        "SEMIMAJOR_AXIS": "27977.410",
        "PERIOD": "776.195",
        "APOAPSIS": "26153.752",
        "PERIAPSIS": "17044.799",
        "OBJECT_TYPE": "PAYLOAD",
        "RCS_SIZE": "LARGE",
        "COUNTRY_CODE": "ESA",
        "LAUNCH_DATE": "2014-08-22",
        "SITE": "FRGUI",
        "DECAY_DATE": null,
        "FILE": "4717971",
        "GP_ID": "286759992",
        "TLE_LINE0": "0 GALILEO 6 (262)",
        "TLE_LINE1": "1 40129U 14050B   25122.96574636 -.00000055  00000-0  00000-0 0  9995",
        "TLE_LINE2": "2 40129  49.3389 289.2373 1627912 164.3357 201.3713  1.85520322 72874"
    }
]